{
    "links": {
        "self": "http://www.neowsapp.com/rest/v1/neo/3892740?api_key=iIulBulltgU6a56xZRHN4H3l9WmuAYTsLGpBGhQ2"
    },
    "id": "3892740",
    "neo_reference_id": "3892740",
    "name": "(2019 VE4)",
    "designation": "2019 VE4",
    "nasa_jpl_url": "http://ssd.jpl.nasa.gov/sbdb.cgi?sstr=3892740",
    "absolute_magnitude_h": 27.9,
    "estimated_diameter": {
        "kilometers": {
            "estimated_diameter_min": 0.0069912523,
            "estimated_diameter_max": 0.0156329154
        },
        "meters": {
            "estimated_diameter_min": 6.9912523225,
            "estimated_diameter_max": 15.6329154409
        },
        "miles": {
            "estimated_diameter_min": 0.0043441614,
            "estimated_diameter_max": 0.0097138403
        },
        "feet": {
            "estimated_diameter_min": 22.9371802696,
            "estimated_diameter_max": 51.289094295
        }
    },
    "is_potentially_hazardous_asteroid": false,
    "close_approach_data": [
        {
            "close_approach_date": "2019-10-30",
            "close_approach_date_full": "2019-Oct-30 04:44",
            "epoch_date_close_approach": 1572410640000,
            "relative_velocity": {
                "kilometers_per_second": "8.8840316212",
                "kilometers_per_hour": "31982.5138362478",
                "miles_per_hour": "19872.6903334174"
            },
            "miss_distance": {
                "astronomical": "0.0246708327",
                "lunar": "9.5969539203",
                "kilometers": "3690704.023046349",
                "miles": "2293297.1383196562"
            },
            "orbiting_body": "Earth"
        }
    ],
    "orbital_data": {
        "orbit_id": "3",
        "orbit_determination_date": "2019-11-26 09:38:25",
        "first_observation_date": "2019-11-05",
        "last_observation_date": "2019-11-18",
        "data_arc_in_days": 13,
        "observations_used": 15,
        "orbit_uncertainty": "8",
        "minimum_orbit_intersection": ".0027466",
        "jupiter_tisserand_invariant": "3.239",
        "epoch_osculation": "2458803.5",
        "eccentricity": ".5924332498781072",
        "semi_major_axis": "2.434817394067039",
        "inclination": ".56200232310481",
        "ascending_node_longitude": "221.1156282429526",
        "orbital_period": "1387.707771132075",
        "perihelion_distance": ".9923506124401592",
        "perihelion_argument": "155.3465369809169",
        "aphelion_distance": "3.877284175693919",
        "perihelion_time": "2458771.506006229057",
        "mean_anomaly": "8.299901461345405",
        "mean_motion": ".259420612530199",
        "equinox": "J2000",
        "orbit_class": {
            "orbit_class_type": "APO",
            "orbit_class_description": "Near-Earth asteroid orbits which cross the Earth’s orbit similar to that of 1862 Apollo",
            "orbit_class_range": "a (semi-major axis) > 1.0 AU; q (perihelion) < 1.017 AU"
        }
    },
    "is_sentry_object": false
}